[{"OBJECT_NAME":"XIWANG-1 (HOPE-1)","OBJECT_ID":"2009-072B","EPOCH":"2026-03-09T21:54:41.953248","MEAN_MOTION":13.16437783,"ECCENTRICITY":0.00080951,"INCLINATION":100.3921,"RA_OF_ASC_NODE":24.3821,"ARG_OF_PERICENTER":99.0297,"MEAN_ANOMALY":261.1733,"EPHEMERIS_TYPE":0,"CLASSIFICATION_TYPE":"U","NORAD_CAT_ID":36122,"ELEMENT_SET_NO":999,"REV_AT_EPOCH":77994,"BSTAR":0.0011898647,"MEAN_MOTION_DOT":4.1e-6,"MEAN_MOTION_DDOT":0},{"OBJECT_NAME":"ONEWEB-0638","OBJECT_ID":"2023-029G","EPOCH":"2026-03-09T16:17:25.868832","MEAN_MOTION":13.14503651,"ECCENTRICITY":0.00010177,"INCLINATION":87.8977,"RA_OF_ASC_NODE":309.6166,"ARG_OF_PERICENTER":83.261,"MEAN_ANOMALY":276.8635,"EPHEMERIS_TYPE":0,"CLASSIFICATION_TYPE":"U","NORAD_CAT_ID":55802,"ELEMENT_SET_NO":999,"REV_AT_EPOCH":14632,"BSTAR":-0.00026598625,"MEAN_MOTION_DOT":-8.6e-7,"MEAN_MOTION_DDOT":0}]
